[ {"name": "STARLINK-11270 [DTC]", "line1": "1 60999U 24158K   26147.57594568  .00150326  00000+0  12201-2 0  9996", "line2": "2 60999  53.1564 252.4518 0001024  85.4154 274.6981 15.69774158 99974"}, {"name": "STARLINK-11290 [DTC]", "line1": "1 61000U 24158L   26147.69836950  .00001736  00000+0  19182-4 0  9994", "line2": "2 61000  53.1593 251.7890 0001016 123.7393 236.3722 15.69715869100062"}, {"name": "STARLINK-11274 [DTC]", "line1": "1 61001U 24158M   26147.68855663  .00001306  00000+0  15626-4 0  9998", "line2": "2 61001  53.1595 251.7247 0000859  91.8763 268.2353 15.69718128 99995"}, {"name": "STARLINK-11288 [DTC]", "line1": "1 61002U 24158N   26147.68367700 -.00000629  00000+0 -33454-6 0  9999", "line2": "2 61002  53.1604 251.6938 0000901  90.4036 269.7085 15.69693306 99997"}, {"name": "STARLINK-32279", "line1": "1 61003U 24158P   26148.06719881  .00000207  00000+0  19110-4 0  9995", "line2": "2 61003  53.1603  56.8774 0001021  96.2969 263.8148 15.30193541 97800"}, {"name": "STARLINK-32336", "line1": "1 61004U 24158Q   26148.12829495  .00001150  00000+0  50963-4 0  9995", "line2": "2 61004  53.1621  56.5486 0001052 128.1094 232.0001 15.30188098 97814"}, {"name": "STARLINK-32284", "line1": "1 61005U 24158R   26148.07037402 -.00001296  00000+0 -31652-4 0  9996", "line2": "2 61005  53.1606  56.8978 0001230  94.6100 265.5042 15.30180132 97738"}, {"name": "STARLINK-32282", "line1": "1 61006U 24158S   26148.11879751  .00000077  00000+0  14733-4 0  9998", "line2": "2 61006  53.1614  56.4874 0001021  88.9417 271.1701 15.30193145 97816"}, {"name": "STARLINK-32360", "line1": "1 61007U 24158T   26148.09249821  .00000297  00000+0  19926-4 0  9998", "line2": "2 61007  53.1621  41.0335 0001176  83.6340 276.4796 15.34388518 97956"}, {"name": "STARLINK-32340", "line1": "1 61008U 24158U   26148.16668980  .00118948  00000+0  35883-2 0  9999", "line2": "2 61008  53.1604  56.4844 0001492  62.2438  54.8315 15.33395815  5934"}, {"name": "STARLINK-32347", "line1": "1 61010U 24158W   26148.12196552 -.00000504  00000+0 -49104-5 0  9993", "line2": "2 61010  53.1609  56.5031 0000970 105.7845 254.3262 15.30189887 97741"}, {"name": "STARLINK-11286 [DTC]", "line1": "1 61050U 24164A   26147.79877123  .00002954  00000+0  29228-4 0  9999", "line2": "2 61050  53.1585 281.3051 0000936  58.5053 301.6056 15.69709550 97841"}, {"name": "STARLINK-11252 [DTC]", "line1": "1 61051U 24164B   26147.66653531  .00004428  00000+0  41379-4 0  9990", "line2": "2 61051  53.1587 281.8996 0001208 102.1220 257.9933 15.69714115 97820"}, {"name": "STARLINK-11230 [DTC]", "line1": "1 61053U 24164D   26147.78403851  .00003961  00000+0  37499-4 0  9992", "line2": "2 61053  53.1592 281.2071 0000948 121.1653 238.9458 15.69732642 97845"}, {"name": "STARLINK-11294 [DTC]", "line1": "1 61054U 24164E   26147.65181829  .00001417  00000+0  16555-4 0  9991", "line2": "2 61054  53.1597 281.8001 0001360 105.6638 254.4530 15.69708841 97825"}, {"name": "STARLINK-11268 [DTC]", "line1": "1 61055U 24164F   26147.77424554  .00002217  00000+0  23149-4 0  9996", "line2": "2 61055  53.1597 281.1422 0001148  92.4397 267.6752 15.69711807 97845"}, {"name": "STARLINK-11156 [DTC]", "line1": "1 61056U 24164G   26147.61492525 -.00000480  00000+0  86783-6 0  9999", "line2": "2 61056  53.1598 281.5598 0001392  38.2591 321.8525 15.68830887 97828"}, {"name": "STARLINK-11231 [DTC]", "line1": "1 61057U 24164H   26147.63720678  .00000224  00000+0  67018-5 0  9999", "line2": "2 61057  53.1602 282.4422 0000929  65.4523 294.6592 15.69708514 97815"}, {"name": "STARLINK-11299 [DTC]", "line1": "1 61058U 24164J   26147.63230023  .00000452  00000+0  85859-5 0  9996", "line2": "2 61058  53.1601 282.4090 0000983  92.3085 267.8046 15.69709998 97811"}, {"name": "STARLINK-11154 [DTC]", "line1": "1 61059U 24164K   26147.62739475 -.00001296  00000+0 -58444-5 0  9990", "line2": "2 61059  53.1596 282.3759 0001035  84.0822 276.0314 15.69710015 97814"}, {"name": "STARLINK-11297 [DTC]", "line1": "1 61060U 24164L   26147.74982316  .00005587  00000+0  50928-4 0  9992", "line2": "2 61060  53.1585 281.7126 0000973  97.0028 263.1101 15.69717877 97833"}, {"name": "STARLINK-11233 [DTC]", "line1": "1 61061U 24164M   26147.68125179  .00000714  00000+0  10754-4 0  9992", "line2": "2 61061  53.1596 281.9920 0001045 106.8467 253.2666 15.69710782 97820"}, {"name": "STARLINK-11236 [DTC]", "line1": "1 61062U 24164N   26147.74000821  .00001685  00000+0  18751-4 0  9999", "line2": "2 61062  53.1600 281.6459 0000804  67.1973 292.9130 15.69717814 97834"}, {"name": "STARLINK-32350", "line1": "1 61063U 24164P   26148.20064747  .00000072  00000+0  14082-4 0  9991", "line2": "2 61063  53.1614  81.6156 0001059  86.9963 273.1160 15.31701347 95658"}, {"name": "STARLINK-32378", "line1": "1 61064U 24164Q   26148.20531615 -.00000570  00000+0 -65907-5 0  9993", "line2": "2 61064  53.1619  81.6460 0001186  83.9324 276.1813 15.31701769 95657"}, {"name": "STARLINK-32321", "line1": "1 61065U 24164R   26148.09781750  .00001899  00000+0  76240-4 0  9992", "line2": "2 61065  53.1604  82.3942 0001229  78.2626 281.8513 15.30194099 95634"}, {"name": "STARLINK-32381", "line1": "1 61066U 24164S   26148.10837164  .00000215  00000+0  19386-4 0  9995", "line2": "2 61066  53.1609  82.4576 0001107  93.2306 266.8821 15.30193910 95637"}, {"name": "STARLINK-32385", "line1": "1 61068U 24164U   26148.08414543  .00000978  00000+0  43268-4 0  9998", "line2": "2 61068  53.1610  82.3105 0001331  99.6648 260.4504 15.31704289 95632"}, {"name": "STARLINK-32380", "line1": "1 61069U 24164V   26148.07948255  .00000603  00000+0  31187-4 0  9992", "line2": "2 61069  53.1625  82.2829 0001341  81.6401 278.4752 15.31699850 95631"}, {"name": "STARLINK-32375", "line1": "1 61070U 24164W   26148.10098405  .00000749  00000+0  37425-4 0  9993", "line2": "2 61070  53.1611  82.4098 0001236  85.0976 275.0166 15.30190858 95631"}, {"name": "STARLINK-11209 [DTC]", "line1": "1 61200U 24171A   26148.19673054  .00001884  00000+0  20405-4 0  9995", "line2": "2 61200  53.1590 144.5171 0001202  63.4387 296.6754 15.69714920 97798"}, {"name": "STARLINK-11257 [DTC]", "line1": "1 61201U 24171B   26148.19182632  .00002178  00000+0  22832-4 0  9996", "line2": "2 61201  53.1588 144.4805 0000988  82.4308 277.6822 15.69709640 96880"}, {"name": "STARLINK-11309 [DTC]", "line1": "1 61202U 24171C   26148.18692831 -.00000027  00000+0  46318-5 0  9991", "line2": "2 61202  53.1587 144.4480 0001004  97.6921 262.4211 15.69707235 96880"}, {"name": "STARLINK-11292 [DTC]", "line1": "1 61203U 24171D   26148.18201537  .00000455  00000+0  86141-5 0  9993", "line2": "2 61203  53.1591 144.4138 0001113 132.8688 227.2423 15.69712191 96880"}, {"name": "STARLINK-11302 [DTC]", "line1": "1 61204U 24171E   26148.17709060  .00003845  00000+0  36547-4 0  9997", "line2": "2 61204  53.1582 144.3798 0000922 108.4758 251.6360 15.69733827 96886"}, {"name": "STARLINK-11277 [DTC]", "line1": "1 61205U 24171F   26148.16730307  .00000351  00000+0  77502-5 0  9991", "line2": "2 61205  53.1588 144.3160 0000726  96.8107 263.2994 15.69708699 96887"}, {"name": "STARLINK-11279 [DTC]", "line1": "1 61206U 24171G   26148.16239183  .00000501  00000+0  89871-5 0  9997", "line2": "2 61206  53.1571 144.2782 0000565 115.3915 244.7161 15.69711681 96889"}, {"name": "STARLINK-11091 [DTC]", "line1": "1 61207U 24171H   26148.17220462  .00001956  00000+0  20989-4 0  9998", "line2": "2 61207  53.1565 144.3467 0000756 117.6135 242.4960 15.69715462 96888"}, {"name": "STARLINK-11291 [DTC]", "line1": "1 61208U 24171J   26148.15748429  .00000822  00000+0  11637-4 0  9996", "line2": "2 61208  53.1587 144.2479 0000531 103.2400 256.8677 15.69712389 96881"}, {"name": "STARLINK-11304 [DTC]", "line1": "1 61209U 24171K   26148.15258431  .00003509  00000+0  33798-4 0  9993", "line2": "2 61209  53.1573 144.2141 0000628  80.0945 280.0144 15.69714517 97790"}, {"name": "STARLINK-11307 [DTC]", "line1": "1 61210U 24171L   26148.14777571  .00001286  00000+0  15462-4 0  9993", "line2": "2 61210  53.1583 144.9138 0000944  62.3008 297.8105 15.69715963 96877"}, {"name": "STARLINK-11298 [DTC]", "line1": "1 61211U 24171M   26148.14287293  .00002414  00000+0  24783-4 0  9991", "line2": "2 61211  53.1601 144.8859 0001167  88.8402 271.2749 15.69709147 96874"}, {"name": "STARLINK-11310 [DTC]", "line1": "1 61212U 24171N   26147.43761228  .00000195  00000+0  64696-5 0  9990", "line2": "2 61212  53.1579 148.3025 0001123 102.6546 257.4598 15.69704691 96764"}, {"name": "STARLINK-32386", "line1": "1 61213U 24171P   26147.88538573  .00001535  00000+0  56530-4 0  9991", "line2": "2 61213  53.1590 313.8819 0001070  60.9923 299.1186 15.34421875 94502"}, {"name": "STARLINK-32392", "line1": "1 61214U 24171Q   26148.15646163 -.00000586  00000+0 -62145-5 0  9995", "line2": "2 61214  53.1608 312.7337 0001183  83.6978 276.4159 15.34393761 94547"}, {"name": "STARLINK-32436", "line1": "1 61215U 24171R   26148.18033052  .00030523  00000+0  10310-2 0  9992", "line2": "2 61215  53.1599 312.8773 0001977 138.9978 221.1172 15.30431869 94547"}, {"name": "STARLINK-32425", "line1": "1 61216U 24171S   26148.15536140  .00000168  00000+0  17800-4 0  9991", "line2": "2 61216  53.1601 313.4343 0000975  87.7717 272.3395 15.30195090 94538"}, {"name": "STARLINK-32342", "line1": "1 61217U 24171T   26147.88353328  .00002363  00000+0  91832-4 0  9992", "line2": "2 61217  53.1610 314.5792 0001006  73.6144 286.4967 15.30211758 95401"}, {"name": "STARLINK-32423", "line1": "1 61218U 24171U   26147.88567262  .00009301  00000+0  32618-3 0  9992", "line2": "2 61218  53.1614 314.5939 0001088  85.7976 274.3149 15.30156739 95401"}, {"name": "STARLINK-32248", "line1": "1 61219U 24171V   26148.15934618  .00000013  00000+0  12189-4 0  9990", "line2": "2 61219  53.1601 313.4528 0001003  87.3355 272.7761 15.31705867 95445"}, {"name": "STARLINK-11300 [DTC]", "line1": "1 61243U 24175A   26148.06936856  .00001581  00000+0  17899-4 0  9991", "line2": "2 61243  53.1585  24.9764 0000651  97.5500 262.5592 15.69714381 95836"}]